ONEWEB-0267             
1 48985U 21060U   24319.58793895  .00000092  00000+0  20742-3 0  9994
2 48985  87.9096 344.2437 0002058  86.0473 274.0893 13.16597253164618
ONEWEB-0268             
1 48986U 21060V   24320.46825672 -.00000679  00000+0 -18088-2 0  9995
2 48986  87.9102 344.0744 0001735  95.5512 264.5816 13.16601516164994
ONEWEB-0269             
1 48987U 21060W   24319.61328565  .00000116  00000+0  27065-3 0  9990
2 48987  87.9101 344.2751 0001849  96.9432 263.1910 13.16596166163360
ONEWEB-0270             
1 48988U 21060X   24319.55470305  .00000013  00000+0 -51332-6 0  9998
2 48988  87.9097 344.2630 0001924  78.0132 282.1214 13.16596198163399
ONEWEB-0271             
1 48989U 21060Y   24319.61803059  .00000057  00000+0  11471-3 0  9996
2 48989  87.9098 344.2290 0002028  84.2740 275.8622 13.16596716163403
ONEWEB-0272             
1 48990U 21060Z   24319.56420227  .00000013  00000+0 -85684-6 0  9997
2 48990  87.9099 344.2702 0002008  87.7787 272.3574 13.16596022163342
ONEWEB-0273             
1 48991U 21060AA  24319.58636929  .00000116  00000+0  27093-3 0  9998
2 48991  87.9096 344.2516 0001750  86.4885 273.6446 13.16595747164628
ONEWEB-0274             
1 48992U 21060AB  24319.61170310  .00000124  00000+0  29060-3 0  9995
2 48992  87.9105 344.2702 0002343  94.3938 265.7460 13.16596294163369
